[{"OBJECT_NAME":"FENGYUN 1C DEB","OBJECT_ID":"1999-025KG","EPOCH":"2026-04-25T16:02:36.920832","MEAN_MOTION":14.14609223,"ECCENTRICITY":0.0053531,"INCLINATION":98.6615,"RA_OF_ASC_NODE":131.1046,"ARG_OF_PERICENTER":310.3033,"MEAN_ANOMALY":49.3469,"EPHEMERIS_TYPE":0,"CLASSIFICATION_TYPE":"U","NORAD_CAT_ID":29958,"ELEMENT_SET_NO":999,"REV_AT_EPOCH":99344,"BSTAR":0.00017045,"MEAN_MOTION_DOT":2.89e-6,"MEAN_MOTION_DDOT":0},{"OBJECT_NAME":"FENGYUN 1C DEB","OBJECT_ID":"1999-025KH","EPOCH":"2026-04-25T15:39:19.677312","MEAN_MOTION":14.06096077,"ECCENTRICITY":0.0041208,"INCLINATION":98.79,"RA_OF_ASC_NODE":147.5424,"ARG_OF_PERICENTER":312.2379,"MEAN_ANOMALY":176.1272,"EPHEMERIS_TYPE":0,"CLASSIFICATION_TYPE":"U","NORAD_CAT_ID":29959,"ELEMENT_SET_NO":999,"REV_AT_EPOCH":98822,"BSTAR":5.176e-5,"MEAN_MOTION_DOT":4.3e-7,"MEAN_MOTION_DDOT":0},{"OBJECT_NAME":"FENGYUN 1C DEB","OBJECT_ID":"1999-025KJ","EPOCH":"2026-04-25T17:14:02.918976","MEAN_MOTION":14.16657901,"ECCENTRICITY":0.0090139,"INCLINATION":98.6292,"RA_OF_ASC_NODE":102.1345,"ARG_OF_PERICENTER":261.142,"MEAN_ANOMALY":280.3483,"EPHEMERIS_TYPE":0,"CLASSIFICATION_TYPE":"U","NORAD_CAT_ID":29960,"ELEMENT_SET_NO":999,"REV_AT_EPOCH":99351,"BSTAR":0.00028208,"MEAN_MOTION_DOT":5.43e-6,"MEAN_MOTION_DDOT":0},{"OBJECT_NAME":"FENGYUN 1C DEB","OBJECT_ID":"1999-025KK","EPOCH":"2026-04-25T15:30:24.372288","MEAN_MOTION":14.26339224,"ECCENTRICITY":0.007358,"INCLINATION":98.9349,"RA_OF_ASC_NODE":10.8435,"ARG_OF_PERICENTER":277.507,"MEAN_ANOMALY":81.7754,"EPHEMERIS_TYPE":0,"CLASSIFICATION_TYPE":"U","NORAD_CAT_ID":29961,"ELEMENT_SET_NO":999,"REV_AT_EPOCH":218,"BSTAR":0.00011508,"MEAN_MOTION_DOT":2.37e-6,"MEAN_MOTION_DDOT":0},{"OBJECT_NAME":"FENGYUN 1C DEB","OBJECT_ID":"1999-025KL","EPOCH":"2026-04-25T14:25:49.217376","MEAN_MOTION":14.07252694,"ECCENTRICITY":0.0109781,"INCLINATION":98.7669,"RA_OF_ASC_NODE":124.8108,"ARG_OF_PERICENTER":203.9895,"MEAN_ANOMALY":274.6519,"EPHEMERIS_TYPE":0,"CLASSIFICATION_TYPE":"U","NORAD_CAT_ID":29962,"ELEMENT_SET_NO":999,"REV_AT_EPOCH":98880,"BSTAR":0.00014169,"MEAN_MOTION_DOT":2.08e-6,"MEAN_MOTION_DDOT":0},{"OBJECT_NAME":"FENGYUN 1C DEB","OBJECT_ID":"1999-025KM","EPOCH":"2026-04-25T09:47:42.285120","MEAN_MOTION":14.29883889,"ECCENTRICITY":0.0049805,"INCLINATION":98.9868,"RA_OF_ASC_NODE":8.7023,"ARG_OF_PERICENTER":274.6357,"MEAN_ANOMALY":141.3814,"EPHEMERIS_TYPE":0,"CLASSIFICATION_TYPE":"U","NORAD_CAT_ID":29963,"ELEMENT_SET_NO":999,"REV_AT_EPOCH":50,"BSTAR":0.00046472,"MEAN_MOTION_DOT":1.165e-5,"MEAN_MOTION_DDOT":0},{"OBJECT_NAME":"FENGYUN 1C DEB","OBJECT_ID":"1999-025KN","EPOCH":"2026-04-25T19:48:12.204000","MEAN_MOTION":14.03143767,"ECCENTRICITY":0.013,"INCLINATION":98.369,"RA_OF_ASC_NODE":312.6579,"ARG_OF_PERICENTER":249.6049,"MEAN_ANOMALY":109.1116,"EPHEMERIS_TYPE":0,"CLASSIFICATION_TYPE":"U","NORAD_CAT_ID":29964,"ELEMENT_SET_NO":999,"REV_AT_EPOCH":98197,"BSTAR":0.00091138,"MEAN_MOTION_DOT":1.489e-5,"MEAN_MOTION_DDOT":0},{"OBJECT_NAME":"FENGYUN 1C DEB","OBJECT_ID":"1999-025KP","EPOCH":"2026-04-25T12:13:43.745376","MEAN_MOTION":13.95853145,"ECCENTRICITY":0.014617,"INCLINATION":98.9715,"RA_OF_ASC_NODE":111.6339,"ARG_OF_PERICENTER":60.5624,"MEAN_ANOMALY":69.2838,"EPHEMERIS_TYPE":0,"CLASSIFICATION_TYPE":"U","NORAD_CAT_ID":29965,"ELEMENT_SET_NO":999,"REV_AT_EPOCH":98142,"BSTAR":0.00029591,"MEAN_MOTION_DOT":4.0e-6,"MEAN_MOTION_DDOT":0},{"OBJECT_NAME":"FENGYUN 1C DEB","OBJECT_ID":"1999-025KQ","EPOCH":"2026-04-25T13:42:13.834080","MEAN_MOTION":14.26006764,"ECCENTRICITY":0.0039022,"INCLINATION":99.4807,"RA_OF_ASC_NODE":338.5031,"ARG_OF_PERICENTER":325.8703,"MEAN_ANOMALY":33.9966,"EPHEMERIS_TYPE":0,"CLASSIFICATION_TYPE":"U","NORAD_CAT_ID":29966,"ELEMENT_SET_NO":999,"REV_AT_EPOCH":99950,"BSTAR":0.00024936,"MEAN_MOTION_DOT":5.49e-6,"MEAN_MOTION_DDOT":0},{"OBJECT_NAME":"FENGYUN 1C DEB","OBJECT_ID":"1999-025KR","EPOCH":"2026-04-22T04:45:16.678944","MEAN_MOTION":14.2451194,"ECCENTRICITY":0.00734035,"INCLINATION":98.8536,"RA_OF_ASC_NODE":194.8456,"ARG_OF_PERICENTER":275.7407,"MEAN_ANOMALY":110.7026,"EPHEMERIS_TYPE":0,"CLASSIFICATION_TYPE":"U","NORAD_CAT_ID":29967,"ELEMENT_SET_NO":999,"REV_AT_EPOCH":99079,"BSTAR":0.00086697467,"MEAN_MOTION_DOT":2.022e-5,"MEAN_MOTION_DDOT":0},{"OBJECT_NAME":"FENGYUN 1C DEB","OBJECT_ID":"1999-025KS","EPOCH":"2026-04-25T17:14:45.522816","MEAN_MOTION":14.07354644,"ECCENTRICITY":0.0089564,"INCLINATION":98.8168,"RA_OF_ASC_NODE":107.1339,"ARG_OF_PERICENTER":337.9556,"MEAN_ANOMALY":195.8819,"EPHEMERIS_TYPE":0,"CLASSIFICATION_TYPE":"U","NORAD_CAT_ID":29968,"ELEMENT_SET_NO":999,"REV_AT_EPOCH":98933,"BSTAR":0.00022052,"MEAN_MOTION_DOT":3.41e-6,"MEAN_MOTION_DDOT":0},{"OBJECT_NAME":"FENGYUN 1C DEB","OBJECT_ID":"1999-025KT","EPOCH":"2026-04-25T19:00:02.702880","MEAN_MOTION":14.34594308,"ECCENTRICITY":0.0041058,"INCLINATION":98.7623,"RA_OF_ASC_NODE":206.9149,"ARG_OF_PERICENTER":16.2136,"MEAN_ANOMALY":109.7751,"EPHEMERIS_TYPE":0,"CLASSIFICATION_TYPE":"U","NORAD_CAT_ID":29969,"ELEMENT_SET_NO":999,"REV_AT_EPOCH":99583,"BSTAR":0.0011521,"MEAN_MOTION_DOT":3.241e-5,"MEAN_MOTION_DDOT":0},{"OBJECT_NAME":"FENGYUN 1C DEB","OBJECT_ID":"1999-025KU","EPOCH":"2026-04-25T19:49:44.118048","MEAN_MOTION":14.44488368,"ECCENTRICITY":0.0090927,"INCLINATION":98.819,"RA_OF_ASC_NODE":53.9743,"ARG_OF_PERICENTER":146.7799,"MEAN_ANOMALY":277.6198,"EPHEMERIS_TYPE":0,"CLASSIFICATION_TYPE":"U","NORAD_CAT_ID":29970,"ELEMENT_SET_NO":999,"REV_AT_EPOCH":1056,"BSTAR":0.00034534,"MEAN_MOTION_DOT":1.204e-5,"MEAN_MOTION_DDOT":0},{"OBJECT_NAME":"FENGYUN 1C DEB","OBJECT_ID":"1999-025KV","EPOCH":"2026-04-25T16:06:43.496064","MEAN_MOTION":14.18645389,"ECCENTRICITY":0.0023654,"INCLINATION":98.6624,"RA_OF_ASC_NODE":157.464,"ARG_OF_PERICENTER":141.9085,"MEAN_ANOMALY":346.3571,"EPHEMERIS_TYPE":0,"CLASSIFICATION_TYPE":"U","NORAD_CAT_ID":29971,"ELEMENT_SET_NO":999,"REV_AT_EPOCH":99238,"BSTAR":0.00061173,"MEAN_MOTION_DOT":1.229e-5,"MEAN_MOTION_DDOT":0},{"OBJECT_NAME":"FENGYUN 1C DEB","OBJECT_ID":"1999-025KW","EPOCH":"2026-04-25T16:15:07.803360","MEAN_MOTION":14.68200887,"ECCENTRICITY":0.0060968,"INCLINATION":98.9108,"RA_OF_ASC_NODE":144.5273,"ARG_OF_PERICENTER":318.1178,"MEAN_ANOMALY":166.8512,"EPHEMERIS_TYPE":0,"CLASSIFICATION_TYPE":"U","NORAD_CAT_ID":29972,"ELEMENT_SET_NO":999,"REV_AT_EPOCH":1448,"BSTAR":0.00075872,"MEAN_MOTION_DOT":4.433e-5,"MEAN_MOTION_DDOT":0},{"OBJECT_NAME":"FENGYUN 1C DEB","OBJECT_ID":"1999-025KX","EPOCH":"2026-04-25T14:02:38.865984","MEAN_MOTION":14.06876833,"ECCENTRICITY":0.0059747,"INCLINATION":98.8465,"RA_OF_ASC_NODE":118.1095,"ARG_OF_PERICENTER":132.9758,"MEAN_ANOMALY":355.141,"EPHEMERIS_TYPE":0,"CLASSIFICATION_TYPE":"U","NORAD_CAT_ID":29973,"ELEMENT_SET_NO":999,"REV_AT_EPOCH":98600,"BSTAR":0.00050133,"MEAN_MOTION_DOT":8.06e-6,"MEAN_MOTION_DDOT":0}]
