FENGYUN 1C DEB          
1 29958U 99025KG  26115.66848288  .00000289  00000+0  17045-3 0  9991
2 29958  98.6615 131.1046 0053531 310.3033  49.3469 14.14609223993442
FENGYUN 1C DEB          
1 29959U 99025KH  26115.65231108  .00000043  00000+0  51760-4 0  9999
2 29959  98.7900 147.5424 0041208 312.2379 176.1272 14.06096077988223
FENGYUN 1C DEB          
1 29960U 99025KJ  26115.71808934  .00000543  00000+0  28208-3 0  9990
2 29960  98.6292 102.1345 0090139 261.1420 280.3483 14.16657901993513
FENGYUN 1C DEB          
1 29961U 99025KK  26115.64611542  .00000237  00000+0  11508-3 0  9995
2 29961  98.9349  10.8435 0073580 277.5070  81.7754 14.26339224  2182
FENGYUN 1C DEB          
1 29962U 99025KL  26115.60126409  .00000208  00000+0  14169-3 0  9999
2 29962  98.7669 124.8108 0109781 203.9895 274.6519 14.07252694988808
FENGYUN 1C DEB          
1 29963U 99025KM  26115.40812830  .00001165  00000+0  46472-3 0  9993
2 29963  98.9868   8.7023 0049805 274.6357 141.3814 14.29883889   506
FENGYUN 1C DEB          
1 29964U 99025KN  26115.82514125  .00001489  00000+0  91138-3 0  9994
2 29964  98.3690 312.6579 0130000 249.6049 109.1116 14.03143767981977
FENGYUN 1C DEB          
1 29965U 99025KP  26115.50953409  .00000400  00000+0  29591-3 0  9998
2 29965  98.9715 111.6339 0146170  60.5624  69.2838 13.95853145981422
FENGYUN 1C DEB          
1 29966U 99025KQ  26115.57099345  .00000549  00000+0  24936-3 0  9998
2 29966  99.4807 338.5031 0039022 325.8703  33.9966 14.26006764999502
FENGYUN 1C DEB          
1 29967U 99025KR  26112.19810971  .00002022  00000+0  86697-3 0  9990
2 29967  98.8536 194.8456 0073403 275.7407 110.7026 14.24511940990792
FENGYUN 1C DEB          
1 29968U 99025KS  26115.71858244  .00000341  00000+0  22052-3 0  9994
2 29968  98.8168 107.1339 0089564 337.9556 195.8819 14.07354644989331
FENGYUN 1C DEB          
1 29969U 99025KT  26115.79169795  .00003241  00000+0  11521-2 0  9999
2 29969  98.7623 206.9149 0041058  16.2136 109.7751 14.34594308995835
FENGYUN 1C DEB          
1 29970U 99025KU  26115.82620507  .00001204  00000+0  34534-3 0  9995
2 29970  98.8190  53.9743 0090927 146.7799 277.6198 14.44488368 10567
FENGYUN 1C DEB          
1 29971U 99025KV  26115.67133676  .00001229  00000+0  61173-3 0  9991
2 29971  98.6624 157.4640 0023654 141.9085 346.3571 14.18645389992389
FENGYUN 1C DEB          
1 29972U 99025KW  26115.67717365  .00004433  00000+0  75872-3 0  9996
2 29972  98.9108 144.5273 0060968 318.1178 166.8512 14.68200887 14480
FENGYUN 1C DEB          
1 29973U 99025KX  26115.58517206  .00000806  00000+0  50133-3 0  9992
2 29973  98.8465 118.1095 0059747 132.9758 355.1410 14.06876833986002
